{
  "type": "FeatureCollection",
  "features": [
    {
      "type": "Feature",
      "properties": {
        "norad_id": 32316,
        "name": "FENGYUN 1C DEB",
        "group": "fengyun-1c-debris",
        "lat": -42.518863975888735,
        "lon": 18.52587932132206,
        "alt_km": 708.8886791986988,
        "timestamp": "2025-12-09T14:52:26.447999+00:00",
        "meta_object_name": "FENGYUN 1C DEB",
        "meta_object_id": "1999-025CXH",
        "meta_epoch": "2025-12-08T20:03:01.939104",
        "meta_mean_motion": 14.51782833,
        "meta_eccentricity": 0.00265331,
        "meta_inclination": 99.5289,
        "meta_ra_of_asc_node": 8.7775,
        "meta_arg_of_pericenter": 341.2638,
        "meta_mean_anomaly": 198.8377,
        "meta_ephemeris_type": 0,
        "meta_classification_type": "U",
        "meta_norad_cat_id": 32316,
        "meta_element_set_no": 999,
        "meta_rev_at_epoch": 95720,
        "meta_bstar": 0.0028953456,
        "meta_mean_motion_dot": 0.00011659,
        "meta_mean_motion_ddot": 0,
        "tle_line1": "1 32316U 99025CXH 25342.83543911  .00011659  00000+0  28953-2 0  9990",
        "tle_line2": "2 32316  99.5289   8.7775 0026533 341.2638 198.8377 14.51782833957207"
      },
      "geometry": {
        "type": "Point",
        "coordinates": [
          18.52587932132206,
          -42.518863975888735
        ]
      }
    },
    {
      "type": "Feature",
      "properties": {
        "norad_id": 32320,
        "name": "FENGYUN 1C DEB",
        "group": "fengyun-1c-debris",
        "lat": 43.437110425066706,
        "lon": -169.914976279315,
        "alt_km": 728.410502213238,
        "timestamp": "2025-12-09T14:52:26.448010+00:00",
        "meta_object_name": "FENGYUN 1C DEB",
        "meta_object_id": "1999-025CXM",
        "meta_epoch": "2025-12-06T08:04:56.354304",
        "meta_mean_motion": 14.36096557,
        "meta_eccentricity": 0.00560395,
        "meta_inclination": 100.3737,
        "meta_ra_of_asc_node": 196.129,
        "meta_arg_of_pericenter": 65.6155,
        "meta_mean_anomaly": 295.0859,
        "meta_ephemeris_type": 0,
        "meta_classification_type": "U",
        "meta_norad_cat_id": 32320,
        "meta_element_set_no": 999,
        "meta_rev_at_epoch": 62081,
        "meta_bstar": 0.001523428,
        "meta_mean_motion_dot": 4.459e-05,
        "meta_mean_motion_ddot": 0,
        "tle_line1": "1 32320U 99025CXM 25340.33676336  .00004459  00000+0  15234-2 0  9994",
        "tle_line2": "2 32320 100.3737 196.1290 0056039  65.6155 295.0859 14.36096557620813"
      },
      "geometry": {
        "type": "Point",
        "coordinates": [
          -169.914976279315,
          43.437110425066706
        ]
      }
    },
    {
      "type": "Feature",
      "properties": {
        "norad_id": 32322,
        "name": "FENGYUN 1C DEB",
        "group": "fengyun-1c-debris",
        "lat": -22.870594936553953,
        "lon": 42.72337657062897,
        "alt_km": 1164.5787353227242,
        "timestamp": "2025-12-09T14:52:26.448020+00:00",
        "meta_object_name": "FENGYUN 1C DEB",
        "meta_object_id": "1999-025CXP",
        "meta_epoch": "2025-12-08T21:42:27.593856",
        "meta_mean_motion": 13.34125236,
        "meta_eccentricity": 0.0418921,
        "meta_inclination": 98.3703,
        "meta_ra_of_asc_node": 225.6967,
        "meta_arg_of_pericenter": 107.3236,
        "meta_mean_anomaly": 257.4162,
        "meta_ephemeris_type": 0,
        "meta_classification_type": "U",
        "meta_norad_cat_id": 32322,
        "meta_element_set_no": 999,
        "meta_rev_at_epoch": 60328,
        "meta_bstar": 0.0014414,
        "meta_mean_motion_dot": 1.148e-05,
        "meta_mean_motion_ddot": 0,
        "tle_line1": "1 32322U 99025CXP 25342.90448604  .00001148  00000+0  14414-2 0  9997",
        "tle_line2": "2 32322  98.3703 225.6967 0418921 107.3236 257.4162 13.34125236603284"
      },
      "geometry": {
        "type": "Point",
        "coordinates": [
          42.72337657062897,
          -22.870594936553953
        ]
      }
    },
    {
      "type": "Feature",
      "properties": {
        "norad_id": 32323,
        "name": "FENGYUN 1C DEB",
        "group": "fengyun-1c-debris",
        "lat": 56.223349557422374,
        "lon": 113.99409554383239,
        "alt_km": 1008.4122091619029,
        "timestamp": "2025-12-09T14:52:26.448030+00:00",
        "meta_object_name": "FENGYUN 1C DEB",
        "meta_object_id": "1999-025CXQ",
        "meta_epoch": "2025-12-05T16:00:52.628256",
        "meta_mean_motion": 13.96423813,
        "meta_eccentricity": 0.01564823,
        "meta_inclination": 98.5677,
        "meta_ra_of_asc_node": 123.338,
        "meta_arg_of_pericenter": 229.7568,
        "meta_mean_anomaly": 128.9821,
        "meta_ephemeris_type": 0,
        "meta_classification_type": "U",
        "meta_norad_cat_id": 32323,
        "meta_element_set_no": 999,
        "meta_rev_at_epoch": 60171,
        "meta_bstar": 0.0059154955,
        "meta_mean_motion_dot": 9.02e-05,
        "meta_mean_motion_ddot": 0,
        "tle_line1": "1 32323U 99025CXQ 25339.66727579  .00009020  00000+0  59155-2 0  9996",
        "tle_line2": "2 32323  98.5677 123.3380 0156482 229.7568 128.9821 13.96423813601718"
      },
      "geometry": {
        "type": "Point",
        "coordinates": [
          113.99409554383239,
          56.223349557422374
        ]
      }
    },
    {
      "type": "Feature",
      "properties": {
        "norad_id": 32324,
        "name": "FENGYUN 1C DEB",
        "group": "fengyun-1c-debris",
        "lat": 78.44825172824248,
        "lon": -39.497556828641976,
        "alt_km": 838.8078395659268,
        "timestamp": "2025-12-09T14:52:26.448040+00:00",
        "meta_object_name": "FENGYUN 1C DEB",
        "meta_object_id": "1999-025CXR",
        "meta_epoch": "2025-12-08T06:02:37.847616",
        "meta_mean_motion": 14.09135858,
        "meta_eccentricity": 0.00501078,
        "meta_inclination": 99.5339,
        "meta_ra_of_asc_node": 83.7481,
        "meta_arg_of_pericenter": 36.451,
        "meta_mean_anomaly": 324.0052,
        "meta_ephemeris_type": 0,
        "meta_classification_type": "U",
        "meta_norad_cat_id": 32324,
        "meta_element_set_no": 999,
        "meta_rev_at_epoch": 63935,
        "meta_bstar": 0.00079862211,
        "meta_mean_motion_dot": 1.354e-05,
        "meta_mean_motion_ddot": 0,
        "tle_line1": "1 32324U 99025CXR 25342.25182694  .00001354  00000+0  79862-3 0  9999",
        "tle_line2": "2 32324  99.5339  83.7481 0050107  36.4510 324.0052 14.09135858639353"
      },
      "geometry": {
        "type": "Point",
        "coordinates": [
          -39.497556828641976,
          78.44825172824248
        ]
      }
    },
    {
      "type": "Feature",
      "properties": {
        "norad_id": 32326,
        "name": "FENGYUN 1C DEB",
        "group": "fengyun-1c-debris",
        "lat": 66.17037506819753,
        "lon": -106.40401618965753,
        "alt_km": 935.3004305890599,
        "timestamp": "2025-12-09T14:52:26.448051+00:00",
        "meta_object_name": "FENGYUN 1C DEB",
        "meta_object_id": "1999-025CXT",
        "meta_epoch": "2025-11-30T02:32:37.979232",
        "meta_mean_motion": 13.69261307,
        "meta_eccentricity": 0.03856265,
        "meta_inclination": 98.486,
        "meta_ra_of_asc_node": 264.9459,
        "meta_arg_of_pericenter": 173.0082,
        "meta_mean_anomaly": 187.6669,
        "meta_ephemeris_type": 0,
        "meta_classification_type": "U",
        "meta_norad_cat_id": 32326,
        "meta_element_set_no": 999,
        "meta_rev_at_epoch": 63009,
        "meta_bstar": 0.00044957354,
        "meta_mean_motion_dot": 6.22e-06,
        "meta_mean_motion_ddot": 0,
        "tle_line1": "1 32326U 99025CXT 25334.10599513  .00000622  00000+0  44957-3 0  9992",
        "tle_line2": "2 32326  98.4860 264.9459 0385626 173.0082 187.6669 13.69261307630092"
      },
      "geometry": {
        "type": "Point",
        "coordinates": [
          -106.40401618965753,
          66.17037506819753
        ]
      }
    },
    {
      "type": "Feature",
      "properties": {
        "norad_id": 32331,
        "name": "FENGYUN 1C DEB",
        "group": "fengyun-1c-debris",
        "lat": 76.82461094803526,
        "lon": 174.50751443926652,
        "alt_km": 640.8515955006415,
        "timestamp": "2025-12-09T14:52:26.448061+00:00",
        "meta_object_name": "FENGYUN 1C DEB",
        "meta_object_id": "1999-025CXY",
        "meta_epoch": "2025-11-11T08:35:02.141088",
        "meta_mean_motion": 14.68670701,
        "meta_eccentricity": 0.0013407,
        "meta_inclination": 99.1837,
        "meta_ra_of_asc_node": 279.0061,
        "meta_arg_of_pericenter": 226.0291,
        "meta_mean_anomaly": 133.9806,
        "meta_ephemeris_type": 0,
        "meta_classification_type": "U",
        "meta_norad_cat_id": 32331,
        "meta_element_set_no": 999,
        "meta_rev_at_epoch": 60157,
        "meta_bstar": 0.0092524,
        "meta_mean_motion_dot": 0.0005428,
        "meta_mean_motion_ddot": 0,
        "tle_line1": "1 32331U 99025CXY 25315.35766367  .00054280  00000+0  92524-2 0  9998",
        "tle_line2": "2 32331  99.1837 279.0061 0013407 226.0291 133.9806 14.68670701601572"
      },
      "geometry": {
        "type": "Point",
        "coordinates": [
          174.50751443926652,
          76.82461094803526
        ]
      }
    }
  ]
}